SILVERSAT               
1 66909U 98067XV  26033.55533074  .00111112  00000+0  12632-2 0  9998
2 66909  51.6263 243.2974 0002953 182.8938 177.2039 15.61451329  9683
1998-067XW              
1 66910U 98067XW  26033.56567940  .00088334  00000+0  10534-2 0  9998
2 66910  51.6252 243.3624 0001227 174.1288 185.9720 15.60316116  9687
1998-067XX              
1 66911U 98067XX  26032.95437210  .00092278  00000+0  10158-2 0  9991
2 66911  51.6240 246.0290 0002387 201.7752 158.3140 15.62370847  9587
1998-067XY              
1 66912U 98067XY  26032.97621011  .00054174  00000+0  71916-3 0  9991
2 66912  51.6275 246.9309 0002110 133.5266 226.5902 15.57686086  9574
